[{"OBJECT_NAME":"GLOBALSTAR M073","OBJECT_ID":"2010-054F","EPOCH":"2026-03-09T23:43:39.055872","MEAN_MOTION":12.62269826,"ECCENTRICITY":5.635e-5,"INCLINATION":52.0093,"RA_OF_ASC_NODE":6.2531,"ARG_OF_PERICENTER":96.9542,"MEAN_ANOMALY":341.8173,"EPHEMERIS_TYPE":0,"CLASSIFICATION_TYPE":"U","NORAD_CAT_ID":37193,"ELEMENT_SET_NO":999,"REV_AT_EPOCH":71140,"BSTAR":6.5674016e-5,"MEAN_MOTION_DOT":-9.2e-7,"MEAN_MOTION_DDOT":0},{"OBJECT_NAME":"BREEZE-KM DEB","OBJECT_ID":"2015-020K","EPOCH":"2026-03-08T10:08:09.722400","MEAN_MOTION":12.70530591,"ECCENTRICITY":0.01802757,"INCLINATION":82.4933,"RA_OF_ASC_NODE":322.939,"ARG_OF_PERICENTER":82.7959,"MEAN_ANOMALY":279.3592,"EPHEMERIS_TYPE":0,"CLASSIFICATION_TYPE":"U","NORAD_CAT_ID":41722,"ELEMENT_SET_NO":999,"REV_AT_EPOCH":47900,"BSTAR":0.00029782483,"MEAN_MOTION_DOT":7.6e-7,"MEAN_MOTION_DDOT":0}]
